{
  "type": "FeatureCollection",
  "features": [
    {
      "type": "Feature",
      "properties": {
        "norad_id": 38067,
        "name": "COSMOS 2251 DEB",
        "group": "cosmos-2251-debris",
        "lat": 26.718927128256777,
        "lon": -79.2004111041755,
        "alt_km": 646.5313424498454,
        "timestamp": "2025-12-13T18:50:04.828659+00:00",
        "meta_object_name": "COSMOS 2251 DEB",
        "meta_object_id": "1993-036BRZ",
        "meta_epoch": "2025-12-11T13:16:36.500736",
        "meta_mean_motion": 14.61119497,
        "meta_eccentricity": 0.00693034,
        "meta_inclination": 74.0178,
        "meta_ra_of_asc_node": 276.7742,
        "meta_arg_of_pericenter": 64.8138,
        "meta_mean_anomaly": 110.1896,
        "meta_ephemeris_type": 0,
        "meta_classification_type": "U",
        "meta_norad_cat_id": 38067,
        "meta_element_set_no": 999,
        "meta_rev_at_epoch": 62538,
        "meta_bstar": 0.00063774411,
        "meta_mean_motion_dot": 3.215e-05,
        "meta_mean_motion_ddot": 0,
        "tle_line1": "1 38067U 93036BRZ 25345.55320024  .00003215  00000+0  63774-3 0  9995",
        "tle_line2": "2 38067  74.0178 276.7742 0069303  64.8138 110.1896 14.61119497625382"
      },
      "geometry": {
        "type": "Point",
        "coordinates": [
          -79.2004111041755,
          26.718927128256777
        ]
      }
    },
    {
      "type": "Feature",
      "properties": {
        "norad_id": 38068,
        "name": "COSMOS 2251 DEB",
        "group": "cosmos-2251-debris",
        "lat": 54.33157461388985,
        "lon": -30.140514244352996,
        "alt_km": 750.36763097929,
        "timestamp": "2025-12-13T18:50:04.828670+00:00",
        "meta_object_name": "COSMOS 2251 DEB",
        "meta_object_id": "1993-036BSA",
        "meta_epoch": "2025-11-26T00:12:22.263264",
        "meta_mean_motion": 14.35960004,
        "meta_eccentricity": 0.00240903,
        "meta_inclination": 74.0219,
        "meta_ra_of_asc_node": 338.9788,
        "meta_arg_of_pericenter": 72.1007,
        "meta_mean_anomaly": 288.2769,
        "meta_ephemeris_type": 0,
        "meta_classification_type": "U",
        "meta_norad_cat_id": 38068,
        "meta_element_set_no": 999,
        "meta_rev_at_epoch": 66406,
        "meta_bstar": 0.00028750999,
        "meta_mean_motion_dot": 8.11e-06,
        "meta_mean_motion_ddot": 0,
        "tle_line1": "1 38068U 93036BSA 25330.00859101  .00000811  00000+0  28751-3 0  9998",
        "tle_line2": "2 38068  74.0219 338.9788 0024090  72.1007 288.2769 14.35960004664064"
      },
      "geometry": {
        "type": "Point",
        "coordinates": [
          -30.140514244352996,
          54.33157461388985
        ]
      }
    },
    {
      "type": "Feature",
      "properties": {
        "norad_id": 38197,
        "name": "COSMOS 2251 DEB",
        "group": "cosmos-2251-debris",
        "lat": -8.632181796847844,
        "lon": 177.50471706857388,
        "alt_km": 586.8247644023986,
        "timestamp": "2025-12-13T18:50:04.828680+00:00",
        "meta_object_name": "COSMOS 2251 DEB",
        "meta_object_id": "1993-036BSM",
        "meta_epoch": "2025-12-13T06:34:10.537248",
        "meta_mean_motion": 14.74086411,
        "meta_eccentricity": 0.01258373,
        "meta_inclination": 73.9395,
        "meta_ra_of_asc_node": 356.0012,
        "meta_arg_of_pericenter": 233.3614,
        "meta_mean_anomaly": 125.5937,
        "meta_ephemeris_type": 0,
        "meta_classification_type": "U",
        "meta_norad_cat_id": 38197,
        "meta_element_set_no": 999,
        "meta_rev_at_epoch": 85763,
        "meta_bstar": 0.006992667,
        "meta_mean_motion_dot": 0.00052653,
        "meta_mean_motion_ddot": 0,
        "tle_line1": "1 38197U 93036BSM 25347.27373307  .00052653  00000+0  69927-2 0  9997",
        "tle_line2": "2 38197  73.9395 356.0012 0125837 233.3614 125.5937 14.74086411857638"
      },
      "geometry": {
        "type": "Point",
        "coordinates": [
          177.50471706857388,
          -8.632181796847844
        ]
      }
    },
    {
      "type": "Feature",
      "properties": {
        "norad_id": 38199,
        "name": "COSMOS 2251 DEB",
        "group": "cosmos-2251-debris",
        "lat": -68.08625566452403,
        "lon": 14.806233282001287,
        "alt_km": 887.6203282804181,
        "timestamp": "2025-12-13T18:50:04.828691+00:00",
        "meta_object_name": "COSMOS 2251 DEB",
        "meta_object_id": "1993-036BSP",
        "meta_epoch": "2025-12-09T13:08:57.601824",
        "meta_mean_motion": 13.64788419,
        "meta_eccentricity": 0.0369499,
        "meta_inclination": 73.956,
        "meta_ra_of_asc_node": 67.4327,
        "meta_arg_of_pericenter": 354.5631,
        "meta_mean_anomaly": 5.1515,
        "meta_ephemeris_type": 0,
        "meta_classification_type": "U",
        "meta_norad_cat_id": 38199,
        "meta_element_set_no": 999,
        "meta_rev_at_epoch": 60978,
        "meta_bstar": 0.00073909,
        "meta_mean_motion_dot": 9.26e-06,
        "meta_mean_motion_ddot": 0,
        "tle_line1": "1 38199U 93036BSP 25343.54788891  .00000926  00000+0  73909-3 0  9995",
        "tle_line2": "2 38199  73.9560  67.4327 0369499 354.5631   5.1515 13.64788419609786"
      },
      "geometry": {
        "type": "Point",
        "coordinates": [
          14.806233282001287,
          -68.08625566452403
        ]
      }
    },
    {
      "type": "Feature",
      "properties": {
        "norad_id": 38208,
        "name": "COSMOS 2251 DEB",
        "group": "cosmos-2251-debris",
        "lat": 3.5616299048920714,
        "lon": -104.18703251912385,
        "alt_km": 617.6239505573667,
        "timestamp": "2025-12-13T18:50:04.828701+00:00",
        "meta_object_name": "COSMOS 2251 DEB",
        "meta_object_id": "1993-036BSY",
        "meta_epoch": "2025-12-12T12:59:54.672864",
        "meta_mean_motion": 14.83884236,
        "meta_eccentricity": 0.00021228,
        "meta_inclination": 74.0053,
        "meta_ra_of_asc_node": 79.3033,
        "meta_arg_of_pericenter": 162.4988,
        "meta_mean_anomaly": 215.2843,
        "meta_ephemeris_type": 0,
        "meta_classification_type": "U",
        "meta_norad_cat_id": 38208,
        "meta_element_set_no": 999,
        "meta_rev_at_epoch": 71156,
        "meta_bstar": 0.0034986144,
        "meta_mean_motion_dot": 0.00029144,
        "meta_mean_motion_ddot": 0,
        "tle_line1": "1 38208U 93036BSY 25346.54160501  .00029144  00000+0  34986-2 0  9995",
        "tle_line2": "2 38208  74.0053  79.3033 0002122 162.4988 215.2843 14.83884236711564"
      },
      "geometry": {
        "type": "Point",
        "coordinates": [
          -104.18703251912385,
          3.5616299048920714
        ]
      }
    },
    {
      "type": "Feature",
      "properties": {
        "norad_id": 38212,
        "name": "COSMOS 2251 DEB",
        "group": "cosmos-2251-debris",
        "lat": 69.78225600430265,
        "lon": -156.38589776764883,
        "alt_km": 578.6741691784355,
        "timestamp": "2025-12-13T18:50:04.828712+00:00",
        "meta_object_name": "COSMOS 2251 DEB",
        "meta_object_id": "1993-036BTC",
        "meta_epoch": "2025-12-12T16:22:29.483616",
        "meta_mean_motion": 14.7768615,
        "meta_eccentricity": 0.00924054,
        "meta_inclination": 74.0522,
        "meta_ra_of_asc_node": 76.7119,
        "meta_arg_of_pericenter": 143.7275,
        "meta_mean_anomaly": 217.0214,
        "meta_ephemeris_type": 0,
        "meta_classification_type": "U",
        "meta_norad_cat_id": 38212,
        "meta_element_set_no": 999,
        "meta_rev_at_epoch": 81309,
        "meta_bstar": 0.00069160786,
        "meta_mean_motion_dot": 5.288e-05,
        "meta_mean_motion_ddot": 0,
        "tle_line1": "1 38212U 93036BTC 25346.68228569  .00005288  00000+0  69161-3 0  9991",
        "tle_line2": "2 38212  74.0522  76.7119 0092405 143.7275 217.0214 14.77686150813091"
      },
      "geometry": {
        "type": "Point",
        "coordinates": [
          -156.38589776764883,
          69.78225600430265
        ]
      }
    },
    {
      "type": "Feature",
      "properties": {
        "norad_id": 38220,
        "name": "COSMOS 2251 DEB",
        "group": "cosmos-2251-debris",
        "lat": -48.03735569483249,
        "lon": 47.60080916678589,
        "alt_km": 595.3479597752876,
        "timestamp": "2025-12-13T18:50:04.828722+00:00",
        "meta_object_name": "COSMOS 2251 DEB",
        "meta_object_id": "1993-036BTL",
        "meta_epoch": "2025-12-11T22:01:48.758016",
        "meta_mean_motion": 14.92850575,
        "meta_eccentricity": 0.0004483,
        "meta_inclination": 74.014,
        "meta_ra_of_asc_node": 69.9473,
        "meta_arg_of_pericenter": 50.1596,
        "meta_mean_anomaly": 309.9981,
        "meta_ephemeris_type": 0,
        "meta_classification_type": "U",
        "meta_norad_cat_id": 38220,
        "meta_element_set_no": 999,
        "meta_rev_at_epoch": 71358,
        "meta_bstar": 0.0045219,
        "meta_mean_motion_dot": 0.00047133,
        "meta_mean_motion_ddot": 0,
        "tle_line1": "1 38220U 93036BTL 25345.91792544  .00047133  00000+0  45219-2 0  9996",
        "tle_line2": "2 38220  74.0140  69.9473 0004483  50.1596 309.9981 14.92850575713585"
      },
      "geometry": {
        "type": "Point",
        "coordinates": [
          47.60080916678589,
          -48.03735569483249
        ]
      }
    }
  ]
}